{"type": "FeatureCollection", "features": [ {"type": "Feature", "properties": {"norad_id": 61183, "name": "GSAT0226 (GALILEO 31)", "group": "galileo", "lat": 18.23754910673265, "lon": 32.98498365234459, "alt_km": 23217.927544121037, "timestamp": "2025-12-21T14:40:48.179864+00:00", "meta": {"OBJECT_NAME": "GSAT0226 (GALILEO 31)", "OBJECT_ID": "2024-167B", "EPOCH": "2025-12-21T00:56:32.993664", "MEAN_MOTION": 1.70473742, "ECCENTRICITY": 0.00011348, "INCLINATION": 55.237, "RA_OF_ASC_NODE": 226.2086, "ARG_OF_PERICENTER": 107.254, "MEAN_ANOMALY": 59.1101, "EPHEMERIS_TYPE": 0, "CLASSIFICATION_TYPE": "U", "NORAD_CAT_ID": 61183, "ELEMENT_SET_NO": 999, "REV_AT_EPOCH": 781, "BSTAR": 0, "MEAN_MOTION_DOT": 7.3e-07, "MEAN_MOTION_DDOT": 0}, "tle": {"line1": "1 61183U 24167B   25355.03927076  .00000073  00000+0  00000+0 0  9991", "line2": "2 61183  55.2370 226.2086 0001134 107.2540  59.1101  1.70473742  7815"}}, "geometry": {"type": "Point", "coordinates": [32.98498365234459, 18.23754910673265]}}, {"type": "Feature", "properties": {"norad_id": 67160, "name": "GALILEO A", "group": "galileo", "lat": -2.217911383015457, "lon": 105.55013435028123, "alt_km": 22956.686958825743, "timestamp": "2025-12-21T14:40:48.179876+00:00", "meta": {"OBJECT_NAME": "GALILEO A", "OBJECT_ID": "2025-302A", "EPOCH": "2025-12-18T03:30:19.486368", "MEAN_MOTION": 1.72906186, "ECCENTRICITY": 0.00084238, "INCLINATION": 54.2406, "RA_OF_ASC_NODE": 107.2544, "ARG_OF_PERICENTER": 237.6458, "MEAN_ANOMALY": 122.2317, "EPHEMERIS_TYPE": 0, "CLASSIFICATION_TYPE": "U", "NORAD_CAT_ID": 67160, "ELEMENT_SET_NO": 999, "REV_AT_EPOCH": 2, "BSTAR": 0, "MEAN_MOTION_DOT": -7e-08, "MEAN_MOTION_DDOT": 0}, "tle": {"line1": "1 67160U 25302A   25352.14605887 -.00000007  00000+0  00000+0 0  9994", "line2": "2 67160  54.2406 107.2544 0008423 237.6458 122.2317  1.72906186    28"}}, "geometry": {"type": "Point", "coordinates": [105.55013435028123, -2.217911383015457]}}, {"type": "Feature", "properties": {"norad_id": 67161, "name": "GALILEO B", "group": "galileo", "lat": -1.4114241631746933, "lon": 106.1018293360087, "alt_km": 22939.99297036562, "timestamp": "2025-12-21T14:40:48.179887+00:00", "meta": {"OBJECT_NAME": "GALILEO B", "OBJECT_ID": "2025-302B", "EPOCH": "2025-12-19T07:14:53.290752", "MEAN_MOTION": 1.72972192, "ECCENTRICITY": 0.00045866, "INCLINATION": 54.2272, "RA_OF_ASC_NODE": 107.1916, "ARG_OF_PERICENTER": 255.0301, "MEAN_ANOMALY": 104.8802, "EPHEMERIS_TYPE": 0, "CLASSIFICATION_TYPE": "U", "NORAD_CAT_ID": 67161, "ELEMENT_SET_NO": 999, "REV_AT_EPOCH": 5, "BSTAR": 0, "MEAN_MOTION_DOT": -5e-08, "MEAN_MOTION_DDOT": 0}, "tle": {"line1": "1 67161U 25302B   25353.30200568 -.00000005  00000+0  00000+0 0  9999", "line2": "2 67161  54.2272 107.1916 0004586 255.0301 104.8802  1.72972192    57"}}, "geometry": {"type": "Point", "coordinates": [106.1018293360087, -1.4114241631746933]}}]}